{"features":[{"geometry":{"coordinates":[[[5.001820091164802,52.000089859559885,0.0],[5.0025481276298995,52.00008984606135,0.0],[5.002548153144464,52.00053921414447,0.0],[5.001820109389491,52.000539227643216,0.0]]],"type":"Polygon"},"properties":{"border":"true","name":"dock_b","type":"zone","uuid":"00000000-0000-0000-0000-000000000102"},"type":"Feature"}],"properties":{"crs":"EPSG:4326","datum":[5.0,52.0,0.0],"heading":0.0,"name":"dock_b","subtype":"default","type":"zone","uuid":"00000000-0000-0000-0000-000000000102"},"type":"FeatureCollection"}
