{"features":[{"geometry":{"coordinates":[[[5.0009464587781585,52.00062911151483,0.0],[5.001674503991802,52.000629103415555,0.0],[5.001674520758919,52.00107847145746,0.0],[5.000946468255225,52.00107847955687,0.0]]],"type":"Polygon"},"properties":{"border":"true","name":"zone_5","type":"zone","uuid":"00000000-0000-0000-0000-000000000105"},"type":"Feature"}],"properties":{"crs":"EPSG:4326","datum":[5.0,52.0,0.0],"heading":0.0,"name":"zone_5","subtype":"default","type":"zone","uuid":"00000000-0000-0000-0000-000000000105"},"type":"FeatureCollection"}
