{"features":[{"geometry":{"coordinates":[[[5.000145607293232,52.00008987353087,0.0],[5.000873643759331,52.00008987038121,0.0],[5.000873652507182,52.00053923846472,0.0],[5.0001456087512075,52.000539241614426,0.0]]],"type":"Polygon"},"properties":{"border":"true","name":"dock_a","type":"zone","uuid":"00000000-0000-0000-0000-000000000100"},"type":"Feature"}],"properties":{"crs":"EPSG:4326","datum":[5.0,52.0,0.0],"heading":0.0,"name":"dock_a","subtype":"default","type":"zone","uuid":"00000000-0000-0000-0000-000000000100"},"type":"FeatureCollection"}
