{"features":[{"geometry":{"coordinates":[[[5.001820113034473,52.00062910125574,0.0],[5.002548158247439,52.00062908775695,0.0],[5.002548183762618,52.001078455798606,0.0],[5.0018201312596,52.00107846929762,0.0]]],"type":"Polygon"},"properties":{"border":"true","name":"zone_6","type":"zone","uuid":"00000000-0000-0000-0000-000000000106"},"type":"Feature"}],"properties":{"crs":"EPSG:4326","datum":[5.0,52.0,0.0],"heading":0.0,"name":"zone_6","subtype":"default","type":"zone","uuid":"00000000-0000-0000-0000-000000000106"},"type":"FeatureCollection"}
