{"features":[{"geometry":{"coordinates":[[[5.0,52.0,0.0],[5.0029121400303245,51.999999964004026,0.0],[5.002912256671372,52.00179743615613,0.0],[5.0,52.00179747215443,0.0]]],"type":"Polygon"},"properties":{"border":"true","name":"fixed_yard","type":"workspace","uuid":"00000000-0000-0000-0000-000000000001"},"type":"Feature"}],"properties":{"crs":"EPSG:4326","datum":[5.0,52.0,0.0],"heading":0.0,"name":"fixed_yard","subtype":"default","type":"workspace","uuid":"00000000-0000-0000-0000-000000000001"},"type":"FeatureCollection"}
