{"features":[{"geometry":{"coordinates":[[[5.000946449301282,52.00017974343823,0.0],[5.00167448722502,52.00017973533908,0.0],[5.001674522435648,52.00112340825975,0.0],[5.000946469202941,52.001123416359164,0.0]]],"type":"Polygon"},"properties":{"border":"true","name":"cross_aisle","type":"zone","uuid":"00000000-0000-0000-0000-000000000101"},"type":"Feature"}],"properties":{"crs":"EPSG:4326","datum":[5.0,52.0,0.0],"heading":0.0,"name":"cross_aisle","subtype":"default","type":"zone","uuid":"00000000-0000-0000-0000-000000000101"},"type":"FeatureCollection"}
