{"features":[{"geometry":{"coordinates":[[[5.000145610792422,52.001168356873364,0.0],[5.000873664754467,52.00116835372358,0.0],[5.000873673502738,52.00161772172409,0.0],[5.000145612250467,52.00161772487392,0.0]]],"type":"Polygon"},"properties":{"border":"true","name":"zone_7","type":"zone","uuid":"00000000-0000-0000-0000-000000000107"},"type":"Feature"}],"properties":{"crs":"EPSG:4326","datum":[5.0,52.0,0.0],"heading":0.0,"name":"zone_7","subtype":"default","type":"zone","uuid":"00000000-0000-0000-0000-000000000107"},"type":"FeatureCollection"}
