{"features":[{"geometry":{"coordinates":[[[5.000145609042806,52.000629115227,0.0],[5.0008736542567735,52.00062911207728,0.0],[5.0008736630048345,52.001078480119325,0.0],[5.000145610500817,52.0010784832691,0.0]]],"type":"Polygon"},"properties":{"border":"true","name":"zone_4","type":"zone","uuid":"00000000-0000-0000-0000-000000000104"},"type":"Feature"}],"properties":{"crs":"EPSG:4326","datum":[5.0,52.0,0.0],"heading":0.0,"name":"zone_4","subtype":"default","type":"zone","uuid":"00000000-0000-0000-0000-000000000104"},"type":"FeatureCollection"}
